STARLINK-31782          
1 59606U 24080F   26068.00697171  .00000535  00000+0  28975-4 0  9990
2 59606  43.0026  45.6133 0001265 267.9937  92.0770 15.27579787104381
ION SCV-017             
1 63230U 25052W   26068.71648816  .00006457  00000+0  24539-3 0  9998
2 63230  97.4016 324.7516 0023746  44.9875 315.3282 15.26881798 54851
